<?xml version="1.0" encoding="UTF-8"?>
<ndm xmlns:xsi="http://www.w3.org/2001/XMLSchema-instance" xsi:noNamespaceSchemaLocation="https://sanaregistry.org/r/ndmxml_unqualified/ndmxml-2.0.0-master-2.0.xsd">
<omm id="CCSDS_OMM_VERS" version="2.0">
<header><CREATION_DATE/><ORIGINATOR/></header><body><segment><metadata><OBJECT_NAME>KUIPER-00016</OBJECT_NAME><OBJECT_ID>2025-088J</OBJECT_ID><CENTER_NAME>EARTH</CENTER_NAME><REF_FRAME>TEME</REF_FRAME><TIME_SYSTEM>UTC</TIME_SYSTEM><MEAN_ELEMENT_THEORY>SGP4</MEAN_ELEMENT_THEORY></metadata><data><meanElements><EPOCH>2025-11-18T01:59:50.027424</EPOCH><MEAN_MOTION>14.79950107</MEAN_MOTION><ECCENTRICITY>.00134057</ECCENTRICITY><INCLINATION>51.9008</INCLINATION><RA_OF_ASC_NODE>245.1182</RA_OF_ASC_NODE><ARG_OF_PERICENTER>58.2494</ARG_OF_PERICENTER><MEAN_ANOMALY>301.9773</MEAN_ANOMALY></meanElements><tleParameters><EPHEMERIS_TYPE>0</EPHEMERIS_TYPE><CLASSIFICATION_TYPE>U</CLASSIFICATION_TYPE><NORAD_CAT_ID>63732</NORAD_CAT_ID><ELEMENT_SET_NO>999</ELEMENT_SET_NO><REV_AT_EPOCH>3080</REV_AT_EPOCH><BSTAR>.79077935E-3</BSTAR><MEAN_MOTION_DOT>.582E-4</MEAN_MOTION_DOT><MEAN_MOTION_DDOT>0</MEAN_MOTION_DDOT></tleParameters></data></segment></body></omm>
<omm id="CCSDS_OMM_VERS" version="2.0">
<header><CREATION_DATE/><ORIGINATOR/></header><body><segment><metadata><OBJECT_NAME>KUIPER-00018</OBJECT_NAME><OBJECT_ID>2025-088K</OBJECT_ID><CENTER_NAME>EARTH</CENTER_NAME><REF_FRAME>TEME</REF_FRAME><TIME_SYSTEM>UTC</TIME_SYSTEM><MEAN_ELEMENT_THEORY>SGP4</MEAN_ELEMENT_THEORY></metadata><data><meanElements><EPOCH>2025-11-18T00:40:38.550144</EPOCH><MEAN_MOTION>14.79933794</MEAN_MOTION><ECCENTRICITY>.001333</ECCENTRICITY><INCLINATION>51.9027</INCLINATION><RA_OF_ASC_NODE>234.3129</RA_OF_ASC_NODE><ARG_OF_PERICENTER>79.0008</ARG_OF_PERICENTER><MEAN_ANOMALY>281.2453</MEAN_ANOMALY></meanElements><tleParameters><EPHEMERIS_TYPE>0</EPHEMERIS_TYPE><CLASSIFICATION_TYPE>U</CLASSIFICATION_TYPE><NORAD_CAT_ID>63733</NORAD_CAT_ID><ELEMENT_SET_NO>999</ELEMENT_SET_NO><REV_AT_EPOCH>3095</REV_AT_EPOCH><BSTAR>.29176E-2</BSTAR><MEAN_MOTION_DOT>.22123E-3</MEAN_MOTION_DOT><MEAN_MOTION_DDOT>0</MEAN_MOTION_DDOT></tleParameters></data></segment></body></omm>
<omm id="CCSDS_OMM_VERS" version="2.0">
<header><CREATION_DATE/><ORIGINATOR/></header><body><segment><metadata><OBJECT_NAME>KUIPER-00019</OBJECT_NAME><OBJECT_ID>2025-088L</OBJECT_ID><CENTER_NAME>EARTH</CENTER_NAME><REF_FRAME>TEME</REF_FRAME><TIME_SYSTEM>UTC</TIME_SYSTEM><MEAN_ELEMENT_THEORY>SGP4</MEAN_ELEMENT_THEORY></metadata><data><meanElements><EPOCH>2025-11-18T00:42:03.051936</EPOCH><MEAN_MOTION>14.79825673</MEAN_MOTION><ECCENTRICITY>.0010075</ECCENTRICITY><INCLINATION>51.9001</INCLINATION><RA_OF_ASC_NODE>232.8600</RA_OF_ASC_NODE><ARG_OF_PERICENTER>91.8991</ARG_OF_PERICENTER><MEAN_ANOMALY>268.3125</MEAN_ANOMALY></meanElements><tleParameters><EPHEMERIS_TYPE>0</EPHEMERIS_TYPE><CLASSIFICATION_TYPE>U</CLASSIFICATION_TYPE><NORAD_CAT_ID>63734</NORAD_CAT_ID><ELEMENT_SET_NO>999</ELEMENT_SET_NO><REV_AT_EPOCH>3097</REV_AT_EPOCH><BSTAR>-.11709E-2</BSTAR><MEAN_MOTION_DOT>-.9123E-4</MEAN_MOTION_DOT><MEAN_MOTION_DDOT>0</MEAN_MOTION_DDOT></tleParameters></data></segment></body></omm>
<omm id="CCSDS_OMM_VERS" version="2.0">
<header><CREATION_DATE/><ORIGINATOR/></header><body><segment><metadata><OBJECT_NAME>KUIPER-00020</OBJECT_NAME><OBJECT_ID>2025-088M</OBJECT_ID><CENTER_NAME>EARTH</CENTER_NAME><REF_FRAME>TEME</REF_FRAME><TIME_SYSTEM>UTC</TIME_SYSTEM><MEAN_ELEMENT_THEORY>SGP4</MEAN_ELEMENT_THEORY></metadata><data><meanElements><EPOCH>2025-11-17T22:57:09.733824</EPOCH><MEAN_MOTION>14.79945465</MEAN_MOTION><ECCENTRICITY>.00086364</ECCENTRICITY><INCLINATION>51.9004</INCLINATION><RA_OF_ASC_NODE>237.1444</RA_OF_ASC_NODE><ARG_OF_PERICENTER>70.4452</ARG_OF_PERICENTER><MEAN_ANOMALY>289.7443</MEAN_ANOMALY></meanElements><tleParameters><EPHEMERIS_TYPE>0</EPHEMERIS_TYPE><CLASSIFICATION_TYPE>U</CLASSIFICATION_TYPE><NORAD_CAT_ID>63735</NORAD_CAT_ID><ELEMENT_SET_NO>999</ELEMENT_SET_NO><REV_AT_EPOCH>3111</REV_AT_EPOCH><BSTAR>.10477452E-2</BSTAR><MEAN_MOTION_DOT>.778E-4</MEAN_MOTION_DOT><MEAN_MOTION_DDOT>0</MEAN_MOTION_DDOT></tleParameters></data></segment></body></omm>
<omm id="CCSDS_OMM_VERS" version="2.0">
<header><CREATION_DATE/><ORIGINATOR/></header><body><segment><metadata><OBJECT_NAME>KUIPER-00021</OBJECT_NAME><OBJECT_ID>2025-088N</OBJECT_ID><CENTER_NAME>EARTH</CENTER_NAME><REF_FRAME>TEME</REF_FRAME><TIME_SYSTEM>UTC</TIME_SYSTEM><MEAN_ELEMENT_THEORY>SGP4</MEAN_ELEMENT_THEORY></metadata><data><meanElements><EPOCH>2025-11-18T00:34:16.899744</EPOCH><MEAN_MOTION>14.79951989</MEAN_MOTION><ECCENTRICITY>.00078266</ECCENTRICITY><INCLINATION>51.9004</INCLINATION><RA_OF_ASC_NODE>237.8625</RA_OF_ASC_NODE><ARG_OF_PERICENTER>71.3445</ARG_OF_PERICENTER><MEAN_ANOMALY>288.8366</MEAN_ANOMALY></meanElements><tleParameters><EPHEMERIS_TYPE>0</EPHEMERIS_TYPE><CLASSIFICATION_TYPE>U</CLASSIFICATION_TYPE><NORAD_CAT_ID>63736</NORAD_CAT_ID><ELEMENT_SET_NO>999</ELEMENT_SET_NO><REV_AT_EPOCH>3094</REV_AT_EPOCH><BSTAR>.21881203E-2</BSTAR><MEAN_MOTION_DOT>.16514E-3</MEAN_MOTION_DOT><MEAN_MOTION_DDOT>0</MEAN_MOTION_DDOT></tleParameters></data></segment></body></omm>
<omm id="CCSDS_OMM_VERS" version="2.0">
<header><CREATION_DATE/><ORIGINATOR/></header><body><segment><metadata><OBJECT_NAME>KUIPER-00023</OBJECT_NAME><OBJECT_ID>2025-088P</OBJECT_ID><CENTER_NAME>EARTH</CENTER_NAME><REF_FRAME>TEME</REF_FRAME><TIME_SYSTEM>UTC</TIME_SYSTEM><MEAN_ELEMENT_THEORY>SGP4</MEAN_ELEMENT_THEORY></metadata><data><meanElements><EPOCH>2025-11-18T07:01:37.208928</EPOCH><MEAN_MOTION>14.79974287</MEAN_MOTION><ECCENTRICITY>.001206</ECCENTRICITY><INCLINATION>51.8996</INCLINATION><RA_OF_ASC_NODE>238.1403</RA_OF_ASC_NODE><ARG_OF_PERICENTER>90.3361</ARG_OF_PERICENTER><MEAN_ANOMALY>269.8983</MEAN_ANOMALY></meanElements><tleParameters><EPHEMERIS_TYPE>0</EPHEMERIS_TYPE><CLASSIFICATION_TYPE>U</CLASSIFICATION_TYPE><NORAD_CAT_ID>63737</NORAD_CAT_ID><ELEMENT_SET_NO>999</ELEMENT_SET_NO><REV_AT_EPOCH>3126</REV_AT_EPOCH><BSTAR>.16934E-3</BSTAR><MEAN_MOTION_DOT>.1069E-4</MEAN_MOTION_DOT><MEAN_MOTION_DDOT>0</MEAN_MOTION_DDOT></tleParameters></data></segment></body></omm>
<omm id="CCSDS_OMM_VERS" version="2.0">
<header><CREATION_DATE/><ORIGINATOR/></header><body><segment><metadata><OBJECT_NAME>KUIPER-00024</OBJECT_NAME><OBJECT_ID>2025-088Q</OBJECT_ID><CENTER_NAME>EARTH</CENTER_NAME><REF_FRAME>TEME</REF_FRAME><TIME_SYSTEM>UTC</TIME_SYSTEM><MEAN_ELEMENT_THEORY>SGP4</MEAN_ELEMENT_THEORY></metadata><data><meanElements><EPOCH>2025-11-18T00:38:53.041056</EPOCH><MEAN_MOTION>14.79604951</MEAN_MOTION><ECCENTRICITY>.0005218</ECCENTRICITY><INCLINATION>51.9027</INCLINATION><RA_OF_ASC_NODE>226.7603</RA_OF_ASC_NODE><ARG_OF_PERICENTER>85.4026</ARG_OF_PERICENTER><MEAN_ANOMALY>274.7532</MEAN_ANOMALY></meanElements><tleParameters><EPHEMERIS_TYPE>0</EPHEMERIS_TYPE><CLASSIFICATION_TYPE>U</CLASSIFICATION_TYPE><NORAD_CAT_ID>63738</NORAD_CAT_ID><ELEMENT_SET_NO>999</ELEMENT_SET_NO><REV_AT_EPOCH>3152</REV_AT_EPOCH><BSTAR>.55305E-3</BSTAR><MEAN_MOTION_DOT>.3965E-4</MEAN_MOTION_DOT><MEAN_MOTION_DDOT>0</MEAN_MOTION_DDOT></tleParameters></data></segment></body></omm>
<omm id="CCSDS_OMM_VERS" version="2.0">
<header><CREATION_DATE/><ORIGINATOR/></header><body><segment><metadata><OBJECT_NAME>KUIPER-00025</OBJECT_NAME><OBJECT_ID>2025-088R</OBJECT_ID><CENTER_NAME>EARTH</CENTER_NAME><REF_FRAME>TEME</REF_FRAME><TIME_SYSTEM>UTC</TIME_SYSTEM><MEAN_ELEMENT_THEORY>SGP4</MEAN_ELEMENT_THEORY></metadata><data><meanElements><EPOCH>2025-11-17T22:51:45.410688</EPOCH><MEAN_MOTION>14.80466031</MEAN_MOTION><ECCENTRICITY>.00097978</ECCENTRICITY><INCLINATION>51.9010</INCLINATION><RA_OF_ASC_NODE>235.6377</RA_OF_ASC_NODE><ARG_OF_PERICENTER>67.0788</ARG_OF_PERICENTER><MEAN_ANOMALY>293.1208</MEAN_ANOMALY></meanElements><tleParameters><EPHEMERIS_TYPE>0</EPHEMERIS_TYPE><CLASSIFICATION_TYPE>U</CLASSIFICATION_TYPE><NORAD_CAT_ID>63739</NORAD_CAT_ID><ELEMENT_SET_NO>999</ELEMENT_SET_NO><REV_AT_EPOCH>3125</REV_AT_EPOCH><BSTAR>.61392782E-3</BSTAR><MEAN_MOTION_DOT>.4522E-4</MEAN_MOTION_DOT><MEAN_MOTION_DDOT>0</MEAN_MOTION_DDOT></tleParameters></data></segment></body></omm>

</ndm>
