KUIPER-00016            
1 63732U 25088J   25322.08321791  .00005820  00000+0  79078-3 0  9997
2 63732  51.9008 245.1182 0013405  58.2494 301.9773 14.79950107 30808
KUIPER-00018            
1 63733U 25088K   25322.02822396  .00022123  00000+0  29176-2 0  9997
2 63733  51.9027 234.3129 0013330  79.0008 281.2453 14.79933794 30954
KUIPER-00019            
1 63734U 25088L   25322.02920199 -.00009123  00000+0 -11709-2 0  9998
2 63734  51.9001 232.8600 0010075  91.8991 268.3125 14.79825673 30970
KUIPER-00020            
1 63735U 25088M   25321.95636266  .00007780  00000+0  10477-2 0  9995
2 63735  51.9004 237.1444 0008636  70.4452 289.7443 14.79945465 31112
KUIPER-00021            
1 63736U 25088N   25322.02380671  .00016514  00000+0  21881-2 0  9997
2 63736  51.9004 237.8625 0007826  71.3445 288.8366 14.79951989 30945
KUIPER-00023            
1 63737U 25088P   25322.29279177  .00001069  00000+0  16934-3 0  9998
2 63737  51.8996 238.1403 0012060  90.3361 269.8983 14.79974287 31263
KUIPER-00024            
1 63738U 25088Q   25322.02700279  .00003965  00000+0  55305-3 0  9994
2 63738  51.9027 226.7603 0005218  85.4026 274.7532 14.79604951 31527
KUIPER-00025            
1 63739U 25088R   25321.95260892  .00004522  00000+0  61393-3 0  9992
2 63739  51.9010 235.6377 0009797  67.0788 293.1208 14.80466031 31256
